{
  "type": "FeatureCollection",
  "features": [
    {
      "type": "Feature",
      "properties": {
        "norad_id": 41860,
        "name": "GSAT0212 (GALILEO 16)",
        "group": "galileo",
        "lat": -55.0377650415342,
        "lon": 25.417309706544078,
        "alt_km": 23230.099930113196,
        "timestamp": "2025-12-17T04:57:44.630401+00:00",
        "meta_object_name": "GSAT0212 (GALILEO 16)",
        "meta_object_id": "2016-069B",
        "meta_epoch": "2025-12-15T14:02:25.791936",
        "meta_mean_motion": 1.70474669,
        "meta_eccentricity": 0.00021144,
        "meta_inclination": 55.3815,
        "meta_ra_of_asc_node": 106.1668,
        "meta_arg_of_pericenter": 24.9623,
        "meta_mean_anomaly": 335.0097,
        "meta_ephemeris_type": 0,
        "meta_classification_type": "U",
        "meta_norad_cat_id": 41860,
        "meta_element_set_no": 999,
        "meta_rev_at_epoch": 5652,
        "meta_bstar": 0,
        "meta_mean_motion_dot": -8e-08,
        "meta_mean_motion_ddot": 0,
        "tle_line1": "1 41860U 16069B   25349.58502074 -.00000008  00000+0  00000+0 0  9992",
        "tle_line2": "2 41860  55.3815 106.1668 0002114  24.9623 335.0097  1.70474669 56529"
      },
      "geometry": {
        "type": "Point",
        "coordinates": [
          25.417309706544078,
          -55.0377650415342
        ]
      }
    },
    {
      "type": "Feature",
      "properties": {
        "norad_id": 41861,
        "name": "GSAT0213 (GALILEO 17)",
        "group": "galileo",
        "lat": 38.909200801026515,
        "lon": 139.95960914203556,
        "alt_km": 23221.61359649603,
        "timestamp": "2025-12-17T04:57:44.630411+00:00",
        "meta_object_name": "GSAT0213 (GALILEO 17)",
        "meta_object_id": "2016-069C",
        "meta_epoch": "2025-12-14T04:37:41.330208",
        "meta_mean_motion": 1.70474935,
        "meta_eccentricity": 0.00024236,
        "meta_inclination": 55.3829,
        "meta_ra_of_asc_node": 106.2129,
        "meta_arg_of_pericenter": 283.222,
        "meta_mean_anomaly": 76.7169,
        "meta_ephemeris_type": 0,
        "meta_classification_type": "U",
        "meta_norad_cat_id": 41861,
        "meta_element_set_no": 999,
        "meta_rev_at_epoch": 5636,
        "meta_bstar": 0,
        "meta_mean_motion_dot": -4e-08,
        "meta_mean_motion_ddot": 0,
        "tle_line1": "1 41861U 16069C   25348.19283947 -.00000004  00000+0  00000+0 0  9990",
        "tle_line2": "2 41861  55.3829 106.2129 0002423 283.2220  76.7169  1.70474935 56361"
      },
      "geometry": {
        "type": "Point",
        "coordinates": [
          139.95960914203556,
          38.909200801026515
        ]
      }
    },
    {
      "type": "Feature",
      "properties": {
        "norad_id": 41862,
        "name": "GSAT0214 (GALILEO 18)",
        "group": "galileo",
        "lat": -31.850330466915075,
        "lon": 80.72715720722097,
        "alt_km": 23222.439535198042,
        "timestamp": "2025-12-17T04:57:44.630421+00:00",
        "meta_object_name": "GSAT0214 (GALILEO 18)",
        "meta_object_id": "2016-069D",
        "meta_epoch": "2025-12-14T22:12:36.299232",
        "meta_mean_motion": 1.70474813,
        "meta_eccentricity": 0.00014239,
        "meta_inclination": 55.3815,
        "meta_ra_of_asc_node": 106.1855,
        "meta_arg_of_pericenter": 290.4821,
        "meta_mean_anomaly": 69.4663,
        "meta_ephemeris_type": 0,
        "meta_classification_type": "U",
        "meta_norad_cat_id": 41862,
        "meta_element_set_no": 999,
        "meta_rev_at_epoch": 5650,
        "meta_bstar": 0,
        "meta_mean_motion_dot": -6e-08,
        "meta_mean_motion_ddot": 0,
        "tle_line1": "1 41862U 16069D   25348.92542013 -.00000006  00000+0  00000+0 0  9996",
        "tle_line2": "2 41862  55.3815 106.1855 0001423 290.4821  69.4663  1.70474813 56507"
      },
      "geometry": {
        "type": "Point",
        "coordinates": [
          80.72715720722097,
          -31.850330466915075
        ]
      }
    },
    {
      "type": "Feature",
      "properties": {
        "norad_id": 43055,
        "name": "GSAT0215 (GALILEO 19)",
        "group": "galileo",
        "lat": 15.700370112291226,
        "lon": -122.18169061716384,
        "alt_km": 23217.08531655633,
        "timestamp": "2025-12-17T04:57:44.630431+00:00",
        "meta_object_name": "GSAT0215 (GALILEO 19)",
        "meta_object_id": "2017-079A",
        "meta_epoch": "2025-12-11T21:30:24.060384",
        "meta_mean_motion": 1.704739,
        "meta_eccentricity": 0.00012658,
        "meta_inclination": 55.1303,
        "meta_ra_of_asc_node": 226.661,
        "meta_arg_of_pericenter": 350.6161,
        "meta_mean_anomaly": 9.46,
        "meta_ephemeris_type": 0,
        "meta_classification_type": "U",
        "meta_norad_cat_id": 43055,
        "meta_element_set_no": 999,
        "meta_rev_at_epoch": 4979,
        "meta_bstar": 0,
        "meta_mean_motion_dot": 1.3e-07,
        "meta_mean_motion_ddot": 0,
        "tle_line1": "1 43055U 17079A   25345.89611181  .00000013  00000+0  00000+0 0  9997",
        "tle_line2": "2 43055  55.1303 226.6610 0001265 350.6161   9.4600  1.70473900 49794"
      },
      "geometry": {
        "type": "Point",
        "coordinates": [
          -122.18169061716384,
          15.700370112291226
        ]
      }
    },
    {
      "type": "Feature",
      "properties": {
        "norad_id": 43056,
        "name": "GSAT0216 (GALILEO 20)",
        "group": "galileo",
        "lat": -16.69580022105102,
        "lon": 58.58611129517703,
        "alt_km": 23228.29501155366,
        "timestamp": "2025-12-17T04:57:44.630441+00:00",
        "meta_object_name": "GSAT0216 (GALILEO 20)",
        "meta_object_id": "2017-079B",
        "meta_epoch": "2025-12-15T02:53:15.721440",
        "meta_mean_motion": 1.70474161,
        "meta_eccentricity": 0.00024377,
        "meta_inclination": 55.1296,
        "meta_ra_of_asc_node": 226.5721,
        "meta_arg_of_pericenter": 321.9365,
        "meta_mean_anomaly": 38.1347,
        "meta_ephemeris_type": 0,
        "meta_classification_type": "U",
        "meta_norad_cat_id": 43056,
        "meta_element_set_no": 999,
        "meta_rev_at_epoch": 4986,
        "meta_bstar": 0,
        "meta_mean_motion_dot": 3.8e-07,
        "meta_mean_motion_ddot": 0,
        "tle_line1": "1 43056U 17079B   25349.12032085  .00000038  00000+0  00000+0 0  9995",
        "tle_line2": "2 43056  55.1296 226.5721 0002437 321.9365  38.1347  1.70474161 49862"
      },
      "geometry": {
        "type": "Point",
        "coordinates": [
          58.58611129517703,
          -16.69580022105102
        ]
      }
    },
    {
      "type": "Feature",
      "properties": {
        "norad_id": 43057,
        "name": "GSAT0217 (GALILEO 21)",
        "group": "galileo",
        "lat": 48.07619687680841,
        "lon": -82.59267639587434,
        "alt_km": 23214.769334355566,
        "timestamp": "2025-12-17T04:57:44.630451+00:00",
        "meta_object_name": "GSAT0217 (GALILEO 21)",
        "meta_object_id": "2017-079C",
        "meta_epoch": "2025-12-14T18:06:24.484320",
        "meta_mean_motion": 1.70474057,
        "meta_eccentricity": 0.00027983,
        "meta_inclination": 55.1277,
        "meta_ra_of_asc_node": 226.5802,
        "meta_arg_of_pericenter": 346.6847,
        "meta_mean_anomaly": 13.3944,
        "meta_ephemeris_type": 0,
        "meta_classification_type": "U",
        "meta_norad_cat_id": 43057,
        "meta_element_set_no": 999,
        "meta_rev_at_epoch": 4984,
        "meta_bstar": 0,
        "meta_mean_motion_dot": 3.5e-07,
        "meta_mean_motion_ddot": 0,
        "tle_line1": "1 43057U 17079C   25348.75445005  .00000035  00000+0  00000+0 0  9991",
        "tle_line2": "2 43057  55.1277 226.5802 0002798 346.6847  13.3944  1.70474057 49841"
      },
      "geometry": {
        "type": "Point",
        "coordinates": [
          -82.59267639587434,
          48.07619687680841
        ]
      }
    },
    {
      "type": "Feature",
      "properties": {
        "norad_id": 43058,
        "name": "GSAT0218 (GALILEO 22)",
        "group": "galileo",
        "lat": -50.45882077656255,
        "lon": 168.95966741475067,
        "alt_km": 23219.722941795066,
        "timestamp": "2025-12-17T04:57:44.630461+00:00",
        "meta_object_name": "GSAT0218 (GALILEO 22)",
        "meta_object_id": "2017-079D",
        "meta_epoch": "2025-12-12T15:04:31.769472",
        "meta_mean_motion": 1.70474063,
        "meta_eccentricity": 0.00028411,
        "meta_inclination": 55.1287,
        "meta_ra_of_asc_node": 226.6365,
        "meta_arg_of_pericenter": 306.3289,
        "meta_mean_anomaly": 53.7237,
        "meta_ephemeris_type": 0,
        "meta_classification_type": "U",
        "meta_norad_cat_id": 43058,
        "meta_element_set_no": 999,
        "meta_rev_at_epoch": 4983,
        "meta_bstar": 0,
        "meta_mean_motion_dot": 1.7e-07,
        "meta_mean_motion_ddot": 0,
        "tle_line1": "1 43058U 17079D   25346.62814548  .00000017  00000+0  00000+0 0  9998",
        "tle_line2": "2 43058  55.1287 226.6365 0002841 306.3289  53.7237  1.70474063 49839"
      },
      "geometry": {
        "type": "Point",
        "coordinates": [
          168.95966741475067,
          -50.45882077656255
        ]
      }
    }
  ]
}